TIANQI 26               
1 59910U 24102B   24179.61307661  .00000351  00000+0  29339-3 0  9993
2 59910  44.9717 222.9912 0010182  98.2704 261.9286 14.05707082  4144
TIANQI 27               
1 59911U 24102C   24179.59912257  .00000084  00000+0  12552-3 0  9996
2 59911  44.9763 222.9171 0007834 108.3288 251.8401 14.08086812  4133
TIANQI 28               
1 59912U 24102D   24178.68030757  .00000048  00000+0  10509-3 0  9992
2 59912  44.9772 227.1054 0012097  94.4683 265.7535 14.07912231  4002
PROGRESS-MS 27          
1 59913U 24103A   24178.76879053  .00017511  00000+0  31590-3 0  9999
2 59913  51.6403 267.8305 0011070  11.3105 131.8048 15.49783804  4030
PAKSAT-MM1              
1 59915U 24104A   24179.82571726  .00000157  00000+0  00000+0 0  9992
2 59915   0.0422 163.9775 0000573 330.2065 117.6987  1.00272845   379
CZ-3B R/B               
1 59916U 24104B   24178.86571895  .00068775 -41411-6  29219-2 0  9998
2 59916  26.8180  57.7803 7176936 197.1057 112.5047  2.45116025   675
2024-105A               
1 59917U 24105A   24179.80865875  .00000354  00000+0  26245-4 0  9997
2 59917  97.6026 186.0283 0015129 181.7385 178.3794 15.09268522  4195
2024-105B               
1 59918U 24105B   24179.80935595  .00004485  00000+0  28520-3 0  9991
2 59918  97.6028 186.0276 0013683 188.9996 171.0989 15.09249090  4207
2024-105C               
1 59919U 24105C   24179.86858757  .00005227  00000+0  32725-3 0  9999
2 59919  97.5991 186.0896 0015301 185.2793 174.8277 15.09726098  4218
2024-105D               
1 59920U 24105D   24179.80349859  .00006237  00000+0  39018-3 0  9997
2 59920  97.6057 186.0459 0015264 183.9511 176.1600 15.09680594  4204
2024-105E               
1 59921U 24105E   24179.87015435  .00005218  00000+0  32747-3 0  9995
2 59921  97.5994 186.0887 0015179 183.9697 176.1414 15.09638828  4216
STARLINK-31872          
1 59922U 24106A   24179.91667824  .00094364  00000+0  15971-2 0  9996
2 59922  42.9994 262.9795 0001567 252.1414 212.2690 15.50541712  5394
STARLINK-31972          
1 59923U 24106B   24179.91667824  .00018367  00000+0  31810-3 0  9997
2 59923  42.9994 262.9737 0001312 258.9968 207.2959 15.50584189  5440
STARLINK-31958          
1 59924U 24106C   24179.58335648 -.02158910  00000+0 -41702-1 0  9999
2 59924  42.9992 264.9211 0001368 278.8289 126.6922 15.50504125  5341
STARLINK-31959          
1 59925U 24106D   24179.58335648 -.02164163  00000+0 -47408-1 0  9996
2 59925  42.9993 264.9280 0001348 278.0446 124.3786 15.46968504  5347
STARLINK-31957          
1 59926U 24106E   24179.91667824 -.02707572  00000+0 -52542-1 0  9990
2 59926  42.9995 262.9595 0000681 264.2158 207.7460 15.50625754  5429
STARLINK-31968          
1 59927U 24106F   24179.91667824  .00104967  00000+0  17738-2 0  9995
2 59927  42.9995 262.9546 0001916 237.7489 236.2199 15.50536582  5448
STARLINK-31970          
1 59928U 24106G   24179.91667824  .00037156  00000+0  63617-3 0  9999
2 59928  42.9994 262.9494 0001753 284.7101 191.1787 15.50577977  5436
STARLINK-31932          
1 59929U 24106H   24177.22360593 -.01648589  00000+0 -14795-1 0  9997
2 59929  42.9977 276.4470 0001875 227.5017 132.5692 15.70373267  4990
STARLINK-31956          
1 59930U 24106J   24179.91667824  .00055091  00000+0  93880-3 0  9995
2 59930  42.9995 262.9437 0002054 264.0165 213.8132 15.50562392  5399
STARLINK-31960          
1 59931U 24106K   24179.91667824  .00043935  00000+0  75063-3 0  9993
2 59931  42.9995 262.9393 0002087 252.1182 227.6323 15.50573824  5391
STARLINK-31432          
1 59932U 24106L   24179.91667824  .00158961  00000+0  26688-2 0  9998
2 59932  42.9988 262.9537 0001986 290.9709 181.7374 15.50493356  5382
STARLINK-31853          
1 59933U 24106M   24179.58335648 -.00041196  00000+0 -69893-3 0  9997
2 59933  42.9993 264.8813 0001651 262.9708 157.8264 15.50624674  5330
STARLINK-31971          
1 59934U 24106N   24179.91667824 -.01746178  00000+0 -17207-1 0  9992
2 59934  42.9996 259.5521 0001497 276.0830 114.6870 15.68333788  5269
STARLINK-31301          
1 59935U 24106P   24179.91667824  .00099878  00000+0  61380-3 0  9991
2 59935  42.9984 261.9364 0002891 335.6648 190.2543 15.76189822  5441
STARLINK-31962          
1 59936U 24106Q   24179.91667824  .00094136  00000+0  15933-2 0  9996
2 59936  42.9993 262.9186 0001846 248.0311 239.3573 15.50541342  5391
STARLINK-31879          
1 59937U 24106R   24179.91667824  .00121334  00000+0  20464-2 0  9993
2 59937  42.9993 262.9095 0001530 270.1557 221.0647 15.50520081  5442
STARLINK-31876          
1 59938U 24106S   24179.91667824  .00019262  00000+0  33329-3 0  9995
2 59938  42.9993 262.9133 0001598 263.0813 226.2221 15.50583468  4268
STARLINK-31955          
1 59939U 24106T   24177.18984633 -.01015426  00000+0 -15435-1 0  9990
2 59939  42.9979 278.8864 0003552 215.3480 144.7147 15.56212040  5018
STARLINK-31946          
1 59940U 24106U   24179.58335648  .00040855  00000+0  69937-3 0  9993
2 59940  42.9992 264.8512 0001553 258.3652 173.9942 15.50547385  5381
STARLINK-31948          
1 59941U 24106V   24179.91667824 -.01774403  00000+0 -23722-1 0  9991
2 59941  42.9995 260.3410 0001541 280.5698 155.7969 15.60251779  5418
STARLINK-31900          
1 59942U 24106W   24179.58335648 -.02145666  00000+0 -42193-1 0  9998
2 59942  42.9992 264.8461 0001390 265.7698 168.3683 15.49983805  5331
STARLINK-31973          
1 59943U 24106X   24179.58335648  .00025841  00000+0  44518-3 0  9992
2 59943  42.9992 264.8359 0001783 254.0766 184.0270 15.50557537  5340
STARLINK-31966          
1 59944U 24106Y   24179.91667824  .00089779  00000+0  15205-2 0  9994
2 59944  42.9994 262.8891 0002091 243.8551 255.0315 15.50544160  5441
STARLINK-11145 [DTC]    
1 59945U 24107A   24179.41481953  .00113356  00000+0  68789-3 0  9993
2 59945  53.1581  72.7444 0000646  52.8289 307.2791 15.76712227  4682
STARLINK-11121 [DTC]    
1 59946U 24107B   24179.85449197  .00130563  00000+0  78441-3 0  9991
2 59946  53.1531  70.5045 0000839 199.9019 160.1970 15.76875879  4812
STARLINK-11113 [DTC]    
1 59947U 24107C   24179.25002315 -.00621478  00000+0 -33437-2 0  9990
2 59947  53.1510  72.5112 0000868  66.4987 228.2774 15.81090446  4667
STARLINK-11123 [DTC]    
1 59948U 24107D   24179.85278056  .00174428  00000+0  10487-2 0  9990
2 59948  53.1524  70.4915 0002807 185.7939 174.3049 15.76711327  4813
STARLINK-11138 [DTC]    
1 59949U 24107E   24179.20891047  .00066759  00000+0  40987-3 0  9997
2 59949  53.1567  73.5864 0001402  42.1029 318.0100 15.76662854  4707
STARLINK-11130 [DTC]    
1 59950U 24107F   24179.84845466  .00059578  00000+0  36574-3 0  9991
2 59950  53.1569  70.4677 0000846 106.8937 253.2176 15.76711596  4752
STARLINK-11126 [DTC]    
1 59951U 24107G   24179.21258918 -.00041858  00000+0 -25305-3 0  9997
2 59951  53.1566  73.6126 0001324 149.3279 210.7819 15.76724154  4708
STARLINK-11124 [DTC]    
1 59952U 24107H   24179.02040757  .00030262  00000+0  18973-3 0  9995
2 59952  53.1516  74.5427 0001504  83.0351 277.0841 15.76548467  4682
STARLINK-11143 [DTC]    
1 59953U 24107J   24179.14518184  .00073241  00000+0  44543-3 0  9999
2 59953  53.1513  73.8970 0000680 168.3978 191.7059 15.76840842  4642
STARLINK-11133 [DTC]    
1 59954U 24107K   24179.01640320  .00065425  00000+0  39973-3 0  9990
2 59954  53.1541  74.5150 0002941 181.6754 178.4257 15.76778067  4623
STARLINK-11144 [DTC]    
1 59955U 24107L   24179.64825333  .00055724  00000+0  34239-3 0  9990
2 59955  53.1542  71.3446 0000679  32.5146 327.5916 15.76718411  4775
STARLINK-11134 [DTC]    
1 59956U 24107M   24179.01236217  .00098526  00000+0  60091-3 0  9991
2 59956  53.1570  74.4867 0001899  10.6505 349.4556 15.76656555  4299
STARLINK-11142 [DTC]    
1 59957U 24107N   24178.94699396  .00046899  00000+0  28878-3 0  9997
2 59957  53.1571  74.7958 0000952 108.1483 251.9642 15.76742910  4612
STARLINK-31995          
1 59958U 24107P   24179.58335648 -.01692150  00000+0 -29771-1 0  9997
2 59958  53.1597  72.2586 0000701  86.6989 334.1957 15.53034429  4655
STARLINK-31989          
1 59959U 24107Q   24179.58335648 -.01690219  00000+0 -29720-1 0  9996
2 59959  53.1598  72.2622 0000760  87.2973 331.8340 15.53045958  4775
STARLINK-31856          
1 59960U 24107R   24179.58335648 -.01693766  00000+0 -29828-1 0  9997
2 59960  53.1597  72.2501 0000824  90.5137 333.9080 15.53010227  4766
STARLINK-31993          
1 59961U 24107S   24179.58335648 -.01693103  00000+0 -29803-1 0  9996
2 59961  53.1598  72.2547 0000654  90.1261 332.5318 15.53022626  4656
STARLINK-31980          
1 59962U 24107T   24179.58335648 -.01693356  00000+0 -29835-1 0  9992
2 59962  53.1598  72.2473 0000625  91.2037 334.9806 15.52998044  4772
STARLINK-31991          
1 59963U 24107U   24179.58335648 -.01694765  00000+0 -29874-1 0  9991
2 59963  53.1597  72.2430 0000840  92.6590 335.2891 15.52985928  4778
STARLINK-31979          
1 59964U 24107V   24179.91667824 -.01748434  00000+0 -32345-1 0  9993
2 59964  53.1598  70.6410 0001090  70.4422  63.0863 15.51757839  4701
PREFIRE-1               
1 59965U 24108A   24179.40289709  .00005265  00000+0  31014-3 0  9990
2 59965  97.4537 329.9579 0013075 221.2728 138.7515 15.11952612  3360
ELECTRON KICK STAGE R/B 
1 59967U 24108C   24179.40480142  .00020131  00000+0  76314-3 0  9997
2 59967  97.4388 330.3689 0050927 305.9677  53.6844 15.25678564  3382
STARLINER CFT-1         
1 59968U 24109A   24178.76879053  .00017511  00000+0  31590-3 0  9995
2 59968  51.6403 267.8305 0011070  11.3105 131.8048 15.49783804  3095
2024-110A               
1 60012U 24110A   24179.84333282  .00010301  00000+0  70189-3 0  9995
2 60012  97.6014 266.2786 0013384 208.9222 151.1265 15.06378182  3251
